satname,norad_id,inclination_deg,eccentricity,mean_motion_rev_per_day,perigee_km,apogee_km,l1,l2
STARLINK-1297,45395,53.0508,0.0002891,15.48154185,420.15990667522146,424.0918186624176,1 45395U 20019AM  26037.82426785  .00120799  00000+0  22347-2 0  9995,2 45395  53.0508 279.0355 0002891 122.7072 237.4214 15.48154185324623
STARLINK-1307,45397,53.0553,0.0001353,15.45937999,427.7023867160524,429.54429606443136,1 45397U 20019AP  26037.84120346  .00024082  00000+0  49399-3 0  9998,2 45397  53.0553 278.5225 0001353 125.8084 234.3048 15.45937999325276
STARLINK-1255,45399,53.0449,0.0007301,15.46100935,423.1758456787984,433.11437881910297,1 45399U 20019AR  26037.91671296  .00118586  00000+0  23543-2 0  9998,2 45399  53.0449 250.1866 0007301 133.5501 258.4541 15.46100935  5888
STARLINK-1260,45404,53.1541,0.0001672,15.30054827,474.50261115563626,476.7945170482717,1 45404U 20019AW  26037.80385737  .00144584  00000+0  48211-2 0  9991,2 45404  53.1541 272.6994 0001672 140.9046 219.2076 15.30054827325245
STARLINK-1263,45405,53.1553,0.0001279,15.29348853,476.88075059651965,478.6344884401924,1 45405U 20019AX  26037.85670461  .00000740  00000+0  37965-4 0  9999,2 45405  53.1553 272.4694 0001279 121.9050 238.2075 15.29348853325255
STARLINK-1265,45406,53.1543,0.0001498,15.29349495,476.7286881177761,478.78271357094945,1 45406U 20019AY  26037.80565684 -.00001848  00000+0 -51734-4 0  9997,2 45406  53.1543 272.7865 0001498 116.2871 243.8284 15.29349495325245
STARLINK-1278,45408,53.0475,0.0005363,15.49696673,413.9681330026524,421.2572541239697,1 45408U 20019BA  26037.82006569  .00092880  00000+0  16350-2 0  9990,2 45408  53.0475 279.1246 0005363  92.8397 267.3224 15.49696673325162
STARLINK-1296,45412,53.1596,0.0001415,15.30163069,474.35557602504014,476.29510586752804,1 45412U 20019BE  26037.91671296  .00015579  00000+0  53762-3 0  9999,2 45412  53.1596 272.1844 0001415  97.1665 182.5845 15.30163069  5776
STARLINK-1298,45413,53.0401,0.0005606,15.8098532,323.89374794628475,331.4122797097889,1 45413U 20019BF  26037.91671296  .00251500  00000+0  12336-2 0  9997,2 45413  53.0401 210.2152 0005606 211.5584 215.7000 15.80985320  5863
STARLINK-1309,45414,53.0706,8.68e-05,15.47693371,422.8852336228101,424.0659935725307,1 45414U 20019BG  26037.91671296 -.00136699  00000+0 -26382-2 0  9997,2 45414  53.0706 271.5901 0000868 108.2494 314.9467 15.47693371  5786
STARLINK-1316,45415,53.1601,0.0001311,15.3019141,474.3422399121546,476.1391955497438,1 45415U 20019BH  26037.84599176  .00002540  00000+0  97877-4 0  9990,2 45415  53.1601 272.5648 0001311  97.1869 262.9281 15.30191410325271
STARLINK-1318,45416,53.0408,0.0005029,15.90004385,298.9110003991955,305.6301543405143,1 45416U 20019BJ  26037.91671296  .00376491  63728-4  12371-2 0  9997,2 45416  53.0408 196.6228 0005029 273.4543 229.6748 15.90004385  5930
STARLINK-1286,45417,53.0494,0.0002269,15.48568075,419.3714208234569,422.4568302242187,1 45417U 20019BK  26037.84284461  .00035788  00000+0  66551-3 0  9994,2 45417  53.0494 278.6667 0002269  74.3091 285.8167 15.48568075325447
STARLINK-1308,45419,53.0556,0.0002073,15.42434287,437.5141828186561,440.3405377024201,1 45419U 20019BM  26037.14746782  .00026698  00000+0  61513-3 0  9991,2 45419  53.0556 302.6746 0002073 108.1204 252.0027 15.42434287324798
STARLINK-1329,45531,53.0528,0.0007685,15.49815226,412.0438615966368,422.48839620575654,1 45531U 20025A   26037.91671296  .00179308  00000+0  31000-2 0  9999,2 45531  53.0528 229.6778 0007685 148.9409  56.2284 15.49815226  5897
STARLINK-1338,45532,53.0533,0.0004936,15.48509701,417.72889719648174,424.44108914814115,1 45532U 20025B   26037.85112919  .00132094  00000+0  24087-2 0  9993,2 45532  53.0533 233.0849 0004936 157.1044 203.0184 15.48509701320613
STARLINK-1350,45535,53.0724,0.0001187,15.35254903,459.3517612383921,460.97517376937776,1 45535U 20025E   26037.61674239  .00015220  00000+0  44837-3 0  9995,2 45535  53.0724 178.9775 0001187 109.6461 250.4669 15.35254903321389
STARLINK-1362,45538,53.1377,0.0001624,15.25392886,488.490604459751,490.7212473620866,1 45538U 20025H   26037.91671296  .01772232  00000+0  63242-1 0  9994,2 45538  53.1377 243.8217 0001624 102.8431  90.8674 15.25392886  5730
STARLINK-1368,45540,53.1212,0.0001883,15.21741828,499.2912860221859,501.88181331099076,1 45540U 20025K   26037.91671296  .00832413  00000+0  33822-1 0  9995,2 45540  53.1212 244.0170 0001883 100.8523 114.9325 15.21741828  5583
STARLINK-1371,45542,53.0522,0.000511,15.43110444,433.45332097915525,440.4183254044574,1 45542U 20025M   26037.82057523  .00109587  00000+0  24129-2 0  9998,2 45542  53.0522 236.3546 0005110 154.5654 205.5603 15.43110444320569
STARLINK-1372,45543,53.1472,0.0001412,15.27525028,482.2448842003714,484.18252964000567,1 45543U 20025N   26037.91671296  .01741885  00000+0  57466-1 0  9991,2 45543  53.1472 243.9407 0001412  98.9078 118.3113 15.27525028  5586
STARLINK-1373,45544,53.0517,0.0003301,15.44725083,429.9378935202003,434.43406875234723,1 45544U 20025P   26037.91671296  .00142038  00000+0  29469-2 0  9999,2 45544  53.0517 236.1473 0003301 184.7620 283.3570 15.44725083  5817
STARLINK-1294,45551,53.0333,0.0007599,15.87591755,303.9553313481156,314.1184982638388,1 45551U 20025W   26037.91671296  .00282736  00000+0  10076-2 0  9991,2 45551  53.0333 132.5418 0007599 346.3801 293.2870 15.87591755  5883
STARLINK-1327,45555,53.052,0.0001562,15.4783764,421.99062344153754,424.1153151879507,1 45555U 20025AA  26037.78475089  .00131360  00000+0  24531-2 0  9999,2 45555  53.0520 215.1267 0001562 220.8796 139.2094 15.47837640320854
STARLINK-1356,45564,53.0541,0.000164,15.4066449,443.0281198893899,445.2658290330146,1 45564U 20025AK  26037.76930332  .00121935  00000+0  29078-2 0  9992,2 45564  53.0541 220.6473 0001640 204.0709 156.0218 15.40664490320772
STARLINK-1357,45565,53.0558,0.0001728,15.49170868,417.9757349582351,420.32487745125945,1 45565U 20025AL  26037.91671296  .00164366  00000+0  29154-2 0  9991,2 45565  53.0558 186.1713 0001728 192.2809  42.6801 15.49170868  5903
STARLINK-1361,45567,53.0542,7.27e-05,15.41514427,441.14323414179944,442.1348295768321,1 45567U 20025AN  26037.91671296  .00170282  00000+0  39193-2 0  9991,2 45567  53.0542 220.4071 0000727 193.3414 294.2108 15.41514427  5684
STARLINK-1363,45568,53.0461,0.0004003,15.68357905,360.89999139540305,366.2974250033867,1 45568U 20025AP  26037.91671296  .00093826  00000+0  81430-3 0  9992,2 45568  53.0461 190.5406 0004003 321.9144 242.0060 15.68357905  5924
STARLINK-1366,45569,53.0466,0.0003873,15.68134479,361.6277405864894,366.8503850847619,1 45569U 20025AQ  26037.91671296  .00013922  00000+0  12746-3 0  9996,2 45569  53.0466 191.1912 0003873 313.5921 224.9034 15.68134479  5922
STARLINK-1376,45570,53.1593,0.0001087,15.29347184,477.01737119196787,478.5078437666334,1 45570U 20025AR  26037.80845559 -.00000250  00000+0  36602-5 0  9991,2 45570  53.1593 221.0568 0001087 117.2474 242.8637 15.29347184320770
STARLINK-1320,45572,53.0497,0.0006569,15.62158998,376.981465980989,385.8621743589292,1 45572U 20025AT  26037.91671296  .00141763  00000+0  15617-2 0  9994,2 45572  53.0497 136.8816 0006569 287.9292 110.1023 15.62158998  5929
STARLINK-1321,45573,53.052,0.0001802,15.42868919,436.4188340135779,438.8752425809789,1 45573U 20025AU  26037.91671296  .00183865  00000+0  40369-2 0  9996,2 45573  53.0520 205.1876 0001802 181.5510 185.1596 15.42868919  5881
STARLINK-1331,45578,53.0546,0.0001583,15.42291859,438.2678421869259,440.4262576371284,1 45578U 20025AZ  26037.91671296  .01759155  00000+0  36323-1 0  9997,2 45578  53.0546 211.8607 0001583  67.4794 251.7528 15.42291859  5734
STARLINK-1333,45580,53.1586,9.73e-05,15.30188443,474.5827422414268,475.9164112692624,1 45580U 20025BB  26037.79947387  .00003716  00000+0  13755-3 0  9993,2 45580  53.1586 221.2856 0000973  96.8705 263.2407 15.30188443320772
STARLINK-1335,45581,53.0547,0.0001645,15.06392177,546.0963106284098,548.3747581922307,1 45581U 20025BC  26037.81217806  .00000526  00000+0  54204-4 0  9994,2 45581  53.0547 215.2323 0001645  96.6084 263.5092 15.06392177320852
STARLINK-1337,45582,53.0544,5.07e-05,15.52909922,407.8909724276409,408.57911055264776,1 45582U 20025BD  26037.91671296  .00441904  00000+0  66098-2 0  9994,2 45582  53.0544 210.6093 0000507 130.0771 286.0339 15.52909922  5739
STARLINK-1347,45586,53.0476,0.0003349,15.47961637,420.4121685927839,424.9673623603003,1 45586U 20025BH  26037.91671296  .00194816  00000+0  35887-2 0  9997,2 45586  53.0476 177.3903 0003349 250.6380 306.9182 15.47961637  5696
STARLINK-1364,45589,53.0539,0.0002625,15.44194043,431.95912759775456,435.535366827542,1 45589U 20025BL  26037.91671296  .00145386  00000+0  30698-2 0  9993,2 45589  53.0539 210.1440 0002625 280.3977 355.3646 15.44194043  5788
STARLINK-1365,45590,53.0529,0.0001225,15.42394892,438.2083336291262,439.87854283649267,1 45590U 20025BM  26037.78333785  .00017886  00000+0  41621-3 0  9990,2 45590  53.0529 240.3964 0001225 150.7604 209.3469 15.42394892320511
STARLINK-1443,45660,53.0558,0.000115,15.06391392,546.4415222259886,548.0343584622688,1 45660U 20035D   26037.77254803  .00000030  00000+0  20898-4 0  9998,2 45660  53.0558 205.4113 0001150  88.4874 271.6247 15.06391392314074
STARLINK-1446,45663,53.0244,0.0003303,15.41487181,439.4667933819728,443.971990514493,1 45663U 20035G   26037.57447801  .00025200  00000+0  59977-3 0  9996,2 45663  53.0244 147.0196 0003303 158.6650 201.4492 15.41487181314877
STARLINK-1448,45665,53.053,0.0002567,15.46196936,426.11628127984295,429.6104818757449,1 45665U 20035J   26037.91671296  .00196539  00000+0  38473-2 0  9994,2 45665  53.0530 200.1995 0002567 332.7693 247.7842 15.46196936  5787
STARLINK-1451,45668,53.0539,0.0002679,15.08353663,539.3766275091284,543.0840245224081,1 45668U 20035M   26037.68853122  .00029326  00000+0  18775-2 0  9993,2 45668  53.0539 205.8436 0002679 154.8117 205.3004 15.08353663314063
